BEIDOU-3S IGSO-1S       
1 40549U 15019A   26158.86267383 -.00000167  00000+0  00000+0 0  9996
2 40549  49.2147 295.5748 0038597 191.2136 172.2668  1.00252763 40985
NAVSTAR 74 (USA 262)    
1 40730U 15033A   26158.74772176 -.00000031  00000+0  00000+0 0  9992
2 40730  53.9899 267.4759 0115032  30.1863 330.4949  2.00556722 79807
BEIDOU-3S M2S           
1 40748U 15037A   26159.19519472 -.00000056  00000+0  00000+0 0  9990
2 40748  54.8797 302.3555 0007874 262.2123  97.6902  1.86232414 73950
BEIDOU-3S M1S           
1 40749U 15037B   26158.32993208 -.00000055  00000+0  00000+0 0  9997
2 40749  54.8767 302.3735 0003632  60.5778 299.4505  1.86254900 73945
GSAT0205 (GALILEO 9)    
1 40889U 15045A   26144.30399159 -.00000014  00000+0  00000+0 0  9994
2 40889  54.9357 222.4171 0006405 263.0112  96.9692  1.67409242 66562
GSAT0206 (GALILEO 10)   
1 40890U 15045B   26157.31220717  .00000041  00000+0  00000+0 0  9993
2 40890  54.9476 221.9050 0001712 337.7692  22.3083  1.70474019 66851
BEIDOU-3S IGSO-2S       
1 40938U 15053A   26158.84164630 -.00000145  00000+0  00000+0 0  9991
2 40938  49.2368 258.8953 0065022 191.8568 204.1208  1.00261612 39267
NAVSTAR 75 (USA 265)    
1 41019U 15062A   26158.30562493 -.00000066  00000+0  00000+0 0  9994
2 41019  56.9527  31.1920 0111617 231.1506 127.9002  2.00567051 77632
GSAT-15                 
1 41028U 15065A   26159.07706130 -.00000242  00000+0  00000+0 0  9996
2 41028   0.0491 113.5759 0004003 325.2533 298.9001  1.00271202 38704
GSAT0209 (GALILEO 12)   
1 41174U 15079A   26156.30703759  .00000019  00000+0  00000+0 0  9991
2 41174  55.8207 101.5878 0005440 339.2511  20.6937  1.70473904 64577
GSAT0208 (GALILEO 11)   
1 41175U 15079B   26158.28712667  .00000025  00000+0  00000+0 0  9996
2 41175  55.8199 101.5304 0004721 346.6269  13.3344  1.70473630 65023
IRNSS-1E                
1 41241U 16003A   26158.65281906 -.00000294  00000+0  00000+0 0  9995
2 41241  33.2144  59.8883 0017905 179.4618   3.4375  1.00269529 37983
NAVSTAR 76 (USA 266)    
1 41328U 16007A   26155.90285179  .00000004  00000+0  00000+0 0  9994
2 41328  55.5169  89.9466 0096310 247.3906 111.5783  2.00552419 75593
COSMOS 2514 [GLONASS-M] 
1 41330U 16008A   26158.89997612 -.00000029  00000+0  00000+0 0  9999
2 41330  65.0276 313.3253 0010933 197.4410 162.5196  2.13102654 80429
BEIDOU-2 IGSO-6         
1 41434U 16021A   26157.01392066 -.00000145  00000+0  00000+0 0  9993
2 41434  60.2097  38.1520 0057221 231.5167  83.2996  1.00261920 37360
IRNSS-1G                
1 41469U 16027A   26159.22681681 -.00000318  00000+0  00000+0 0  9998
2 41469   5.1761  97.6805 0007484 352.6660  17.5102  1.00270660 37099
GSAT0211 (GALILEO 14)   
1 41549U 16030A   26156.65135299  .00000041  00000+0  00000+0 0  9996
2 41549  55.0990 222.0126 0002678 329.1456  30.9257  1.70474112 62473
GSAT0210 (GALILEO 13)   
1 41550U 16030B   26155.73546720  .00000041  00000+0  00000+0 0  9991
2 41550  55.0978 222.0357 0003015 229.1415 130.9222  1.70474170 62452
BEIDOU-2 G7             
1 41586U 16037A   26159.29432773 -.00000337  00000+0  00000+0 0  9993
2 41586   1.6972  69.2452 0007261   2.2376  41.7072  1.00269279  6806
EUTELSAT 117 WEST B     
1 41589U 16038B   26158.53629918  .00000003  00000+0  00000+0 0  9991
2 41589   0.0038 134.8413 0000635 222.8867 334.2645  1.00272357 36567
GSAT0207 (GALILEO 15)   
1 41859U 16069A   26158.36004664  .00000025  00000+0  00000+0 0  9995
2 41859  55.4931 101.3582 0005449 327.1947  32.7456  1.70473644 59233
GSAT0212 (GALILEO 16)   
1 41860U 16069B   26157.04030880  .00000021  00000+0  00000+0 0  9996
2 41860  55.4899 101.3899 0004681 354.1097   5.8552  1.70473908 59468
GSAT0213 (GALILEO 17)   
1 41861U 16069C   26156.23439190  .00000017  00000+0  00000+0 0  9999
2 41861  55.4909 101.4200 0005209 311.1245  48.7972  1.70474348 59318
GSAT0214 (GALILEO 18)   
1 41862U 16069D   26157.55375951  .00000023  00000+0  00000+0 0  9997
2 41862  55.4911 101.3760 0004310 318.2994  41.6400  1.70473962 59468
SES-15                  
1 42709U 17026A   26159.27666903  .00000075  00000+0  00000+0 0  9990
2 42709   0.0197 331.2013 0000540  87.9187 167.9996  1.00269869  7345
QZS-2 (MICHIBIKI-2)     
1 42738U 17028A   26158.57536786 -.00000151  00000+0  00000+0 0  9997
2 42738  39.4419 243.2963 0760585 269.1564  91.9396  1.00286521  7536
QZS-3 (MICHIBIKI-3)     
1 42917U 17048A   26159.22621014 -.00000332  00000+0  00000+0 0  9991
2 42917   0.0576 183.9090 0002711 262.6523  18.5218  1.00269825 32160
COSMOS 2522 [GLONASS-M] 
1 42939U 17055A   26158.26853041  .00000086  00000+0  00000+0 0  9998
2 42939  64.0780 192.2221 0010565 239.6527 120.3102  2.13102039 67760
QZS-4 (MICHIBIKI-4)     
1 42965U 17062A   26158.37145416 -.00000311  00000+0  00000+0 0  9999
2 42965  40.1143 343.6087 0744946 271.5683 272.0991  1.00254196 31707
BEIDOU-3 M1             
1 43001U 17069A   26156.85695868 -.00000038  00000+0  00000+0 0  9996
2 43001  56.6823  63.4582 0010790 323.7021  36.2527  1.86231597 58395
BEIDOU-3 M2             
1 43002U 17069B   26157.86958759 -.00000038  00000+0  00000+0 0  9990
2 43002  56.6831  63.4601 0009370 348.1510  11.8549  1.86231086 58401
